{
  "type": "FeatureCollection",
  "features": [
    {
      "type": "Feature",
      "properties": {
        "norad_id": 36036,
        "name": "SMOS",
        "group": "resource",
        "lat": -71.19664151758101,
        "lon": -23.47469763938246,
        "alt_km": 767.3468826534154,
        "timestamp": "2025-12-23T11:34:47.838794+00:00",
        "meta_object_name": "SMOS",
        "meta_object_id": "2009-059A",
        "meta_epoch": "2025-12-22T22:43:56.957664",
        "meta_mean_motion": 14.39750085,
        "meta_eccentricity": 0.0001062,
        "meta_inclination": 98.438,
        "meta_ra_of_asc_node": 181.8445,
        "meta_arg_of_pericenter": 83.5939,
        "meta_mean_anomaly": 276.537,
        "meta_ephemeris_type": 0,
        "meta_classification_type": "U",
        "meta_norad_cat_id": 36036,
        "meta_element_set_no": 999,
        "meta_rev_at_epoch": 84809,
        "meta_bstar": 0.00013392,
        "meta_mean_motion_dot": 3.76e-06,
        "meta_mean_motion_ddot": 0,
        "tle_line1": "1 36036U 09059A   25356.94718701  .00000376  00000+0  13392-3 0  9995",
        "tle_line2": "2 36036  98.4380 181.8445 0001062  83.5939 276.5370 14.39750085848090"
      },
      "geometry": {
        "type": "Point",
        "coordinates": [
          -23.47469763938246,
          -71.19664151758101
        ]
      }
    },
    {
      "type": "Feature",
      "properties": {
        "norad_id": 36110,
        "name": "YAOGAN-7",
        "group": "resource",
        "lat": 73.1241406782901,
        "lon": 86.93145908120064,
        "alt_km": 641.9795094896317,
        "timestamp": "2025-12-23T11:34:47.838804+00:00",
        "meta_object_name": "YAOGAN-7",
        "meta_object_id": "2009-069A",
        "meta_epoch": "2025-12-22T15:36:15.487200",
        "meta_mean_motion": 14.77746064,
        "meta_eccentricity": 0.00234069,
        "meta_inclination": 98.0295,
        "meta_ra_of_asc_node": 238.3715,
        "meta_arg_of_pericenter": 247.4675,
        "meta_mean_anomaly": 112.4058,
        "meta_ephemeris_type": 0,
        "meta_classification_type": "U",
        "meta_norad_cat_id": 36110,
        "meta_element_set_no": 999,
        "meta_rev_at_epoch": 86355,
        "meta_bstar": 8.4897324e-05,
        "meta_mean_motion_dot": 5.58e-06,
        "meta_mean_motion_ddot": 0,
        "tle_line1": "1 36110U 09069A   25356.65017925  .00000558  00000+0  84897-4 0  9998",
        "tle_line2": "2 36110  98.0295 238.3715 0023406 247.4675 112.4058 14.77746064863559"
      },
      "geometry": {
        "type": "Point",
        "coordinates": [
          86.93145908120064,
          73.1241406782901
        ]
      }
    },
    {
      "type": "Feature",
      "properties": {
        "norad_id": 36605,
        "name": "TANDEM-X",
        "group": "resource",
        "lat": 30.152714988767165,
        "lon": -172.93815045623083,
        "alt_km": 506.55921455963926,
        "timestamp": "2025-12-23T11:34:47.838814+00:00",
        "meta_object_name": "TANDEM-X",
        "meta_object_id": "2010-030A",
        "meta_epoch": "2025-12-22T14:22:24.829536",
        "meta_mean_motion": 15.19158129,
        "meta_eccentricity": 0.0001799,
        "meta_inclination": 97.4444,
        "meta_ra_of_asc_node": 1.8349,
        "meta_arg_of_pericenter": 78.6886,
        "meta_mean_anomaly": 281.4551,
        "meta_ephemeris_type": 0,
        "meta_classification_type": "U",
        "meta_norad_cat_id": 36605,
        "meta_element_set_no": 999,
        "meta_rev_at_epoch": 85983,
        "meta_bstar": 3.9682032e-05,
        "meta_mean_motion_dot": 7.67e-06,
        "meta_mean_motion_ddot": 0,
        "tle_line1": "1 36605U 10030A   25356.59889849  .00000767  00000+0  39682-4 0  9996",
        "tle_line2": "2 36605  97.4444   1.8349 0001799  78.6886 281.4551 15.19158129859839"
      },
      "geometry": {
        "type": "Point",
        "coordinates": [
          -172.93815045623083,
          30.152714988767165
        ]
      }
    },
    {
      "type": "Feature",
      "properties": {
        "norad_id": 36795,
        "name": "CARTOSAT-2B",
        "group": "resource",
        "lat": 69.12205878472017,
        "lon": 25.147513092394895,
        "alt_km": 618.5833646602541,
        "timestamp": "2025-12-23T11:34:47.838823+00:00",
        "meta_object_name": "CARTOSAT-2B",
        "meta_object_id": "2010-035A",
        "meta_epoch": "2025-12-23T04:46:00.367968",
        "meta_mean_motion": 14.78739183,
        "meta_eccentricity": 0.0012688,
        "meta_inclination": 97.7838,
        "meta_ra_of_asc_node": 45.8886,
        "meta_arg_of_pericenter": 45.7938,
        "meta_mean_anomaly": 314.4314,
        "meta_ephemeris_type": 0,
        "meta_classification_type": "U",
        "meta_norad_cat_id": 36795,
        "meta_element_set_no": 999,
        "meta_rev_at_epoch": 83384,
        "meta_bstar": 8.4911e-05,
        "meta_mean_motion_dot": 5.74e-06,
        "meta_mean_motion_ddot": 0,
        "tle_line1": "1 36795U 10035A   25357.19861537  .00000574  00000+0  84911-4 0  9993",
        "tle_line2": "2 36795  97.7838  45.8886 0012688  45.7938 314.4314 14.78739183833841"
      },
      "geometry": {
        "type": "Point",
        "coordinates": [
          25.147513092394895,
          69.12205878472017
        ]
      }
    },
    {
      "type": "Feature",
      "properties": {
        "norad_id": 36834,
        "name": "YAOGAN-10",
        "group": "resource",
        "lat": 18.17935315235445,
        "lon": 14.604323315499547,
        "alt_km": 614.6200989565041,
        "timestamp": "2025-12-23T11:34:47.838833+00:00",
        "meta_object_name": "YAOGAN-10",
        "meta_object_id": "2010-038A",
        "meta_epoch": "2025-12-23T05:37:52.258368",
        "meta_mean_motion": 14.84643765,
        "meta_eccentricity": 0.0001343,
        "meta_inclination": 97.9128,
        "meta_ra_of_asc_node": 16.9761,
        "meta_arg_of_pericenter": 79.382,
        "meta_mean_anomaly": 55.1416,
        "meta_ephemeris_type": 0,
        "meta_classification_type": "U",
        "meta_norad_cat_id": 36834,
        "meta_element_set_no": 999,
        "meta_rev_at_epoch": 83109,
        "meta_bstar": 0.00022699,
        "meta_mean_motion_dot": 1.865e-05,
        "meta_mean_motion_ddot": 0,
        "tle_line1": "1 36834U 10038A   25357.23463262  .00001865  00000+0  22699-3 0  9996",
        "tle_line2": "2 36834  97.9128  16.9761 0001343  79.3820  55.1416 14.84643765831093"
      },
      "geometry": {
        "type": "Point",
        "coordinates": [
          14.604323315499547,
          18.17935315235445
        ]
      }
    },
    {
      "type": "Feature",
      "properties": {
        "norad_id": 37216,
        "name": "COSMO-SKYMED 4",
        "group": "resource",
        "lat": -25.926431312051854,
        "lon": -5.217208313599537,
        "alt_km": 628.7968815898803,
        "timestamp": "2025-12-23T11:34:47.838843+00:00",
        "meta_object_name": "COSMO-SKYMED 4",
        "meta_object_id": "2010-060A",
        "meta_epoch": "2025-12-23T04:10:19.614432",
        "meta_mean_motion": 14.82154589,
        "meta_eccentricity": 0.0001373,
        "meta_inclination": 97.88,
        "meta_ra_of_asc_node": 178.3396,
        "meta_arg_of_pericenter": 80.7898,
        "meta_mean_anomaly": 279.347,
        "meta_ephemeris_type": 0,
        "meta_classification_type": "U",
        "meta_norad_cat_id": 37216,
        "meta_element_set_no": 999,
        "meta_rev_at_epoch": 81849,
        "meta_bstar": -7.9688e-07,
        "meta_mean_motion_dot": -5.8e-07,
        "meta_mean_motion_ddot": 0,
        "tle_line1": "1 37216U 10060A   25357.17383813 -.00000058  00000+0 -79688-6 0  9990",
        "tle_line2": "2 37216  97.8800 178.3396 0001373  80.7898 279.3470 14.82154589818493"
      },
      "geometry": {
        "type": "Point",
        "coordinates": [
          -5.217208313599537,
          -25.926431312051854
        ]
      }
    },
    {
      "type": "Feature",
      "properties": {
        "norad_id": 37387,
        "name": "RESOURCESAT-2",
        "group": "resource",
        "lat": -6.848131269275349,
        "lon": 62.049599076589956,
        "alt_km": 819.6908172398862,
        "timestamp": "2025-12-23T11:34:47.838852+00:00",
        "meta_object_name": "RESOURCESAT-2",
        "meta_object_id": "2011-015A",
        "meta_epoch": "2025-12-23T01:28:38.313984",
        "meta_mean_motion": 14.216012,
        "meta_eccentricity": 0.0005935,
        "meta_inclination": 98.7862,
        "meta_ra_of_asc_node": 60.5664,
        "meta_arg_of_pericenter": 14.45,
        "meta_mean_anomaly": 345.6845,
        "meta_ephemeris_type": 0,
        "meta_classification_type": "U",
        "meta_norad_cat_id": 37387,
        "meta_element_set_no": 999,
        "meta_rev_at_epoch": 76115,
        "meta_bstar": 8.7816e-05,
        "meta_mean_motion_dot": 1.48e-06,
        "meta_mean_motion_ddot": 0,
        "tle_line1": "1 37387U 11015A   25357.06155456  .00000148  00000+0  87816-4 0  9996",
        "tle_line2": "2 37387  98.7862  60.5664 0005935  14.4500 345.6845 14.21601200761155"
      },
      "geometry": {
        "type": "Point",
        "coordinates": [
          62.049599076589956,
          -6.848131269275349
        ]
      }
    }
  ]
}